ENMAP                   
1 52159U 22033C   26059.96236664  .00000121  00000+0  25419-4 0  9994
2 52159  97.9781 143.7512 0001057  82.9763 277.1566 14.74953827210700
ARCSAT-1                
1 52161U 22033E   26059.49707851  .00013149  00000+0  23114-3 0  9999
2 52161  97.2746 150.4078 0004512 217.9695 142.1239 15.50609812218840
LYNK TOWER 1            
1 52162U 22033F   26059.79551519  .00471808  10694-3  66681-3 0  9991
2 52162  97.2588 164.6788 0006723 198.0186 162.0858 16.05676633219812
NUSAT-26 (M SOMERVILLE) 
1 52184U 22033AD  26059.94384226  .00011535  00000+0  31020-3 0  9993
2 52184  97.2432 140.1557 0004942 272.7487  87.3192 15.38031487 88048
GLOBAL-18               
1 52196U 22034B   26059.70736456  .00021452  00000+0  51003-3 0  9999
2 52196  52.9828  53.3523 0002598 297.9288  62.1452 15.41618168220206
GAOFEN-3 03             
1 52200U 22035A   26060.00001995 -.00000044  00000+0 -26536-6 0  9996
2 52200  98.4110  70.1320 0001316 103.7485 256.3851 14.42225056205251
COSMOS 2554             
1 52202U 22036A   26059.49611891 -.00000022  00000+0  38081-4 0  9993
2 52202  67.1464 132.8416 0007101 264.4081  95.6194 13.96673196198777
ZHONGXING-6D            
1 52255U 22038A   26059.21344360 -.00000371  00000+0  00000+0 0  9999
2 52255   0.0560 254.5222 0002405  54.2765  51.1431  1.00270846 14338
DAQI 1                  
1 52257U 22039A   26059.96200777  .00000552  00000+0  13106-3 0  9992
2 52257  98.1387   1.1128 0002543 212.3168 147.7875 14.57645782206173
STARLINK-3761           
1 52262U 22041B   26059.50455243  .00000400  00000+0  43200-4 0  9992
2 52262  53.2165 150.3072 0001726  92.6289 267.4901 15.08840761212971
STARLINK-3786           
1 52263U 22041C   26059.50824048  .00000564  00000+0  53545-4 0  9990
2 52263  53.2158 150.3386 0001337  97.0883 263.0261 15.08839214212971
STARLINK-3795           
1 52264U 22041D   26059.50087697  .00000320  00000+0  38186-4 0  9996
2 52264  53.2166 150.3718 0001292  88.5172 271.5968 15.08841130212974
STARLINK-3740           
1 52265U 22041E   26059.56344426  .00000514  00000+0  50430-4 0  9990
2 52265  53.2168 150.0918 0001662  87.7864 272.3319 15.08831609212986
STARLINK-3739           
1 52266U 22041F   26059.55976059 -.00000072  00000+0  13557-4 0  9992
2 52266  53.2184 150.1088 0001345  99.2740 260.8405 15.08835869212983
STARLINK-3748           
1 52267U 22041G   26059.62232555 -.00002037  00000+0 -11000-3 0  9991
2 52267  53.2172 149.8339 0001438  82.3003 277.8153 15.08824096212992
STARLINK-3746           
1 52268U 22041H   26059.47142924 -.00000241  00000+0  29413-5 0  9998
2 52268  53.2173 150.4254 0001281  94.7273 265.3865 15.08837107212977
STARLINK-3791           
1 52269U 22041J   26059.55239461  .00002333  00000+0  16463-3 0  9993
2 52269  53.2172 150.1402 0001335  89.8010 270.3135 15.08840310212980
STARLINK-3804           
1 52270U 22041K   26059.54504098 -.00000283  00000+0  33603-6 0  9996
2 52270  53.2178 150.2012 0001326  91.4135 268.7009 15.08837682212982
STARLINK-3788           
1 52271U 22041L   26059.54871927  .00000195  00000+0  30348-4 0  9997
2 52271  53.2178 150.1577 0001315 100.8157 259.2984 15.08838096212982
STARLINK-3781           
1 52272U 22041M   26059.54232190 -.00000084  00000+0  12823-4 0  9997
2 52272  53.2171 150.2227 0001202  81.9924 278.1205 15.08830240212984
STARLINK-3782           
1 52273U 22041N   26059.51384370 -.00000244  00000+0  27293-5 0  9999
2 52273  53.2168 140.6968 0001236  91.2868 268.8266 15.08835743213116
STARLINK-3790           
1 52274U 22041P   26059.53400195 -.00000607  00000+0 -20084-4 0  9990
2 52274  53.2168 150.2220 0001272  89.1987 270.9151 15.08831141212982
STARLINK-3784           
1 52275U 22041Q   26059.54136003 -.00000612  00000+0 -20398-4 0  9990
2 52275  53.2175 150.1885 0001228  76.9999 283.1130 15.08835693212984
STARLINK-3778           
1 52276U 22041R   26059.53031441  .00000331  00000+0  38898-4 0  9990
2 52276  53.2162 150.2382 0001268  93.4107 266.7031 15.08836528212988
STARLINK-3780           
1 52278U 22041T   26059.65911474  .00001718  00000+0  12595-3 0  9993
2 52278  53.2153 149.6603 0001075  89.1750 270.9366 15.08849100213002
STARLINK-3764           
1 52280U 22041V   26059.64807102  .00000528  00000+0  51237-4 0  9992
2 52280  53.2164 149.7125 0001300  80.5799 279.5340 15.08846586213008
STARLINK-3779           
1 52281U 22041W   26059.53126814 -.00002549  00000+0 -14210-3 0  9991
2 52281  53.2167 150.2347 0001087  93.4804 266.6313 15.08850268212982
STARLINK-3783           
1 52282U 22041X   26059.50915716 -.00000249  00000+0  24367-5 0  9996
2 52282  53.2173 140.3358 0001258  96.0421 264.0714 15.08839346213113
STARLINK-3789           
1 52283U 22041Y   26059.52295464  .00000318  00000+0  38086-4 0  9998
2 52283  53.2168 150.2727 0001362  96.9461 263.1686 15.08840324212987
STARLINK-3561           
1 52284U 22041Z   26059.63427860 -.00002321  00000+0 -12784-3 0  9992
2 52284  53.2165 139.7700 0001246 103.4880 256.6251 15.08824842213138
STARLINK-3802           
1 52286U 22041AB  26059.49443737  .00000277  00000+0  35476-4 0  9999
2 52286  53.2174 140.4018 0001342  92.7355 267.3791 15.08838272213113
STARLINK-3822           
1 52287U 22041AC  26059.51191398 -.00004307  00000+0 -25261-3 0  9996
2 52287  53.2177 150.3225 0001456  77.6231 282.4924 15.08849881212986
STARLINK-3776           
1 52288U 22041AD  26059.55698553  .00000956  00000+0  78109-4 0  9990
2 52288  53.2175 140.1189 0001155 109.4417 250.6700 15.08847133213121
STARLINK-3751           
1 52289U 22041AE  26059.50547874  .00000173  00000+0  28963-4 0  9999
2 52289  53.2170 140.3505 0001149  88.1743 271.9381 15.08837001213112
STARLINK-3772           
1 52290U 22041AF  26059.48067504  .00000872  00000+0  72897-4 0  9996
2 52290  53.2169 140.4626 0001384  89.8194 270.2957 15.08837756213114
STARLINK-3753           
1 52292U 22041AH  26059.54228877  .00001387  00000+0  10523-3 0  9996
2 52292  53.2160 140.1855 0001167  91.7360 268.3766 15.08840418213120
STARLINK-3771           
1 52293U 22041AJ  26059.62052129  .00001633  00000+0  12062-3 0  9995
2 52293  53.2174 139.8455 0000993  95.9555 264.1550 15.08845170213131
STARLINK-3777           
1 52294U 22041AK  26059.53860065  .00000125  00000+0  25974-4 0  9994
2 52294  53.2171 140.2026 0001344  83.5016 276.6129 15.08837566213124
STARLINK-3765           
1 52295U 22041AL  26059.48339391  .00000591  00000+0  55197-4 0  9999
2 52295  53.2167 140.4503 0001281  84.7688 275.3450 15.08842800213119
STARLINK-3766           
1 52296U 22041AM  26059.52755514 -.00003340  00000+0 -19193-3 0  9996
2 52296  53.2173 140.2506 0001489  96.3505 263.7657 15.08828803213123
STARLINK-3758           
1 52297U 22041AN  26059.54596144 -.00000200  00000+0  55259-5 0  9997
2 52297  53.2178 140.1663 0001343  92.4962 267.6184 15.08831437213120
STARLINK-3760           
1 52298U 22041AP  26059.61951221  .00002307  00000+0  16291-3 0  9997
2 52298  53.2169 139.4533 0001433  89.1730 270.9426 15.08852583213147
STARLINK-3769           
1 52300U 22041AR  26059.51652871 -.00001768  00000+0 -93048-4 0  9997
2 52300  53.2176 140.3011 0001289  89.6063 270.5077 15.08829508214346
STARLINK-3768           
1 52301U 22041AS  26059.53492211 -.00000175  00000+0  71227-5 0  9996
2 52301  53.2173 140.2191 0001291  87.2163 272.8977 15.08836498213125
STARLINK-3564           
1 52302U 22041AT  26059.50640167 -.00000067  00000+0  13880-4 0  9999
2 52302  53.2170 130.3457 0001385  89.4600 270.6551 15.08836708213254
STARLINK-3742           
1 52303U 22041AU  26059.52020092  .00000212  00000+0  31403-4 0  9993
2 52303  53.2174 140.2853 0001288  98.4943 261.6195 15.08836366214346
STARLINK-3744           
1 52304U 22041AV  26059.50272215 -.00000425  00000+0 -85920-5 0  9990
2 52304  53.2174 130.3626 0001187  94.3711 265.7416 15.08833082213253
STARLINK-3724           
1 52305U 22041AW  26059.52389428 -.00000025  00000+0  16525-4 0  9997
2 52305  53.2175 140.3740 0001258  95.7244 264.3892 15.08834099213126
STARLINK-3747           
1 52306U 22041AX  26059.56528112 -.00000124  00000+0  10271-4 0  9999
2 52306  53.2167 130.0813 0001230  84.9265 275.1868 15.08835563214488
STARLINK-3755           
1 52307U 22041AY  26059.51283699 -.00000310  00000+0 -14024-5 0  9992
2 52307  53.2171 140.3159 0001334  91.8439 268.2706 15.08837561213120
STARLINK-3756           
1 52309U 22041BA  26059.49535065 -.00003287  00000+0 -18855-3 0  9998
2 52309  53.2165 130.3943 0001266  96.9125 263.2011 15.08832252214472
STARLINK-3688           
1 52310U 22041BB  26059.49168549 -.00000344  00000+0 -35599-5 0  9996
2 52310  53.2171 130.4803 0000721  54.0850 306.0209 15.08834857214470
STARLINK-3750           
1 52311U 22041BC  26059.48802125  .00001449  00000+0  10914-3 0  9998
2 52311  53.2163 130.4305 0001389  92.8084 267.3068 15.08830400214471
STARLINK-3752           
1 52312U 22041BD  26059.51375351  .00000912  00000+0  75417-4 0  9993
2 52312  53.2173 130.2663 0001384 101.5233 258.5914 15.08836404214480
STARLINK-3749           
1 52313U 22041BE  26059.45119612  .00000214  00000+0  31525-4 0  9990
2 52313  53.2173 130.5951 0001165  82.0288 278.0836 15.08842211214476
SUPERVIEW NEO-1 01      
1 52320U 22043A   26059.96259593  .00006378  00000+0  34099-3 0  9994
2 52320  97.3499 136.2483 0000760 348.0904  12.0311 15.15412354213165
SUPERVIEW NEO-1 02      
1 52322U 22043C   26059.99091411  .00005356  00000+0  28732-3 0  9994
2 52322  97.3497 136.3049 0001968  31.6686 328.4665 15.15360024213181
STARLINK-3889           
1 52331U 22045A   26059.83759717 -.00000806  00000+0 -32577-4 0  9999
2 52331  53.2159 248.8613 0001482  93.9231 266.1930 15.08831513214307
STARLINK-3831           
1 52332U 22045B   26059.91583294  .00000669  00000+0  60146-4 0  9992
2 52332  53.2168 248.5204 0001411  85.1407 274.9746 15.08843449214315
